MONOLITH                
1 49052U 21068A   26068.54548855  .00008348  00000+0  53656-3 0  9993
2 49052  37.0220 141.2957 0002679 131.6464 228.4511 15.08010119252226
STARLINK-4261           
1 52868U 22062AQ  26068.26159278 -.00000918  00000+0 -39586-4 0  9997
2 52868  53.2186  26.0712 0001356  90.3405 269.7743 15.08834921205860
